0 IRIDIUM 33 DEB
1 34697U 97051KU  13281.64733691  .00018261  00000-0  50106-2 0  8930
2 34697 086.4494 149.8347 0082429 335.6755 076.6398 14.44968015237903
0 IRIDIUM 33 DEB
1 34697U 97051KU  13283.11561745  .00027311  00000-0  74754-2 0  8945
2 34697 086.4499 149.2190 0081939 330.9941 154.5246 14.45063114238117
0 IRIDIUM 33 DEB
1 34697U 97051KU  13284.09016898  .00026759  00000-0  73195-2 0  8951
2 34697 086.4502 148.8112 0081824 327.6129 184.5912 14.45103038238253
0 IRIDIUM 33 DEB
1 34697U 97051KU  13285.66509296  .00022478  00000-0  61444-2 0  8963
2 34697 086.4496 148.1512 0081586 322.1185 098.3893 14.45169668238485
0 IRIDIUM 33 DEB
1 34697U 97051KU  13288.10144410  .00042090  00000-0  11456-1 0  8978
2 34697 086.4498 147.1302 0081026 314.1181 174.1351 14.45286723238832
0 IRIDIUM 33 DEB
1 34697U 97051KU  13289.34693522  .00034704  00000-0  94409-2 0  8982
2 34697 086.4494 146.6078 0080799 309.9001 174.7837 14.45366951239019
0 IRIDIUM 33 DEB
1 34697U 97051KU  13290.65037166  .00036007  00000-0  97815-2 0  8997
2 34697 086.4486 146.0611 0080569 305.4839 117.2408 14.45438164239205
0 IRIDIUM 33 DEB
1 34697U 97051KU  13291.35462041  .00030510  00000-0  82893-2 0  9005
2 34697 086.4483 145.7660 0080395 303.1005 181.9605 14.45472895239306
0 IRIDIUM 33 DEB
1 34697U 97051KU  13293.08553288  .00027188  00000-0  73776-2 0  9019
2 34697 086.4479 145.0402 0080167 297.2389 189.5296 14.45561225239556
0 IRIDIUM 33 DEB
1 34697U 97051KU  13295.09336146  .00034318  00000-0  92864-2 0  9027
2 34697 086.4486 144.1979 0080048 290.3818 198.8878 14.45657029239841
